{
    "links": {
        "self": "http://www.neowsapp.com/rest/v1/neo/3842783?api_key=iIulBulltgU6a56xZRHN4H3l9WmuAYTsLGpBGhQ2"
    },
    "id": "3842783",
    "neo_reference_id": "3842783",
    "name": "(2019 LP4)",
    "designation": "2019 LP4",
    "nasa_jpl_url": "http://ssd.jpl.nasa.gov/sbdb.cgi?sstr=3842783",
    "absolute_magnitude_h": 19.4,
    "estimated_diameter": {
        "kilometers": {
            "estimated_diameter_min": 0.3503926411,
            "estimated_diameter_max": 0.7835017643
        },
        "meters": {
            "estimated_diameter_min": 350.3926411083,
            "estimated_diameter_max": 783.5017643338
        },
        "miles": {
            "estimated_diameter_min": 0.2177238258,
            "estimated_diameter_max": 0.4868452748
        },
        "feet": {
            "estimated_diameter_min": 1149.5821926537,
            "estimated_diameter_max": 2570.543928497
        }
    },
    "is_potentially_hazardous_asteroid": false,
    "close_approach_data": [
        {
            "close_approach_date": "1945-06-15",
            "close_approach_date_full": "1945-Jun-15 20:56",
            "epoch_date_close_approach": -774587040000,
            "relative_velocity": {
                "kilometers_per_second": "16.2470320016",
                "kilometers_per_hour": "58489.3152059144",
                "miles_per_hour": "36342.985884475"
            },
            "miss_distance": {
                "astronomical": "0.4921174104",
                "lunar": "191.4336726456",
                "kilometers": "73619716.385755848",
                "miles": "45745170.5303647824"
            },
            "orbiting_body": "Earth"
        },
        {
            "close_approach_date": "2008-06-18",
            "close_approach_date_full": "2008-Jun-18 07:52",
            "epoch_date_close_approach": 1213775520000,
            "relative_velocity": {
                "kilometers_per_second": "13.8149486751",
                "kilometers_per_hour": "49733.8152303139",
                "miles_per_hour": "30902.6586913026"
            },
            "miss_distance": {
                "astronomical": "0.4968564049",
                "lunar": "193.2771415061",
                "kilometers": "74328659.868897563",
                "miles": "46185687.5837418494"
            },
            "orbiting_body": "Earth"
        },
        {
            "close_approach_date": "2045-06-16",
            "close_approach_date_full": "2045-Jun-16 16:13",
            "epoch_date_close_approach": 2381242380000,
            "relative_velocity": {
                "kilometers_per_second": "14.1739150067",
                "kilometers_per_hour": "51026.0940242453",
                "miles_per_hour": "31705.6304785651"
            },
            "miss_distance": {
                "astronomical": "0.4813601922",
                "lunar": "187.2491147658",
                "kilometers": "72010459.455910614",
                "miles": "44745224.6422659132"
            },
            "orbiting_body": "Earth"
        },
        {
            "close_approach_date": "2082-06-16",
            "close_approach_date_full": "2082-Jun-16 13:54",
            "epoch_date_close_approach": 3548843640000,
            "relative_velocity": {
                "kilometers_per_second": "14.6001757795",
                "kilometers_per_hour": "52560.6328063771",
                "miles_per_hour": "32659.1332012736"
            },
            "miss_distance": {
                "astronomical": "0.4638659171",
                "lunar": "180.4438417519",
                "kilometers": "69393353.163756577",
                "miles": "43119030.1999596826"
            },
            "orbiting_body": "Earth"
        },
        {
            "close_approach_date": "2182-06-18",
            "close_approach_date_full": "2182-Jun-18 02:09",
            "epoch_date_close_approach": 6704647740000,
            "relative_velocity": {
                "kilometers_per_second": "14.2533840706",
                "kilometers_per_hour": "51312.1826540624",
                "miles_per_hour": "31883.3948274645"
            },
            "miss_distance": {
                "astronomical": "0.4700874386",
                "lunar": "182.8640136154",
                "kilometers": "70324079.528315782",
                "miles": "43697356.7455385116"
            },
            "orbiting_body": "Earth"
        }
    ],
    "orbital_data": {
        "orbit_id": "4",
        "orbit_determination_date": "2019-07-23 02:49:58",
        "first_observation_date": "2019-01-08",
        "last_observation_date": "2019-07-01",
        "data_arc_in_days": 174,
        "observations_used": 73,
        "orbit_uncertainty": "3",
        "minimum_orbit_intersection": ".464189",
        "jupiter_tisserand_invariant": "3.211",
        "epoch_osculation": "2459000.5",
        "eccentricity": ".4978839873925696",
        "semi_major_axis": "2.39061141405438",
        "inclination": "28.32696255191667",
        "ascending_node_longitude": "115.114920710929",
        "orbital_period": "1350.087480293786",
        "perihelion_distance": "1.200364270918796",
        "perihelion_argument": "96.69619830733338",
        "aphelion_distance": "3.580858557189964",
        "perihelion_time": "2458613.603677285251",
        "mean_anomaly": "103.165667566224",
        "mean_motion": ".2666493877283138",
        "equinox": "J2000",
        "orbit_class": {
            "orbit_class_type": "AMO",
            "orbit_class_description": "Near-Earth asteroid orbits similar to that of 1221 Amor",
            "orbit_class_range": "1.017 AU < q (perihelion) < 1.3 AU"
        }
    },
    "is_sentry_object": false
}